OBJECT_NAME,OBJECT_ID,EPOCH,MEAN_MOTION,ECCENTRICITY,INCLINATION,RA_OF_ASC_NODE,ARG_OF_PERICENTER,MEAN_ANOMALY,EPHEMERIS_TYPE,CLASSIFICATION_TYPE,NORAD_CAT_ID,ELEMENT_SET_NO,REV_AT_EPOCH,BSTAR,MEAN_MOTION_DOT,MEAN_MOTION_DDOT
BEIDOU-3S IGSO-1S (C31),2015-019A,2026-07-02T19:12:21.705408,1.00680073,.00768606,49.1798,295.2769,219.1125,144.2493,0,U,40549,999,4123,0,-.19E-5,0
GPS BIIF-10 (PRN 08),2015-033A,2026-07-19T15:07:04.615392,2.00554635,.01154315,53.9579,265.7473,30.2916,330.4403,0,U,40730,999,8064,0,-.36E-6,0
BEIDOU-3S M2S (C58),2015-037A,2026-07-19T00:04:56.720928,1.86231862,.0009533,54.8406,300.9506,256.5664,103.3636,0,U,40748,999,7471,0,-.93E-6,0
BEIDOU-3S M1S (C57),2015-037B,2026-07-20T06:44:12.505056,1.86254901,.00026187,54.8358,300.8934,62.6171,297.4444,0,U,40749,999,7474,0,-.99E-6,0
GSAT0206 (GALILEO 10),2015-045B,2026-07-19T17:15:48.914496,1.70473609,.00023524,54.9380,220.7054,327.8216,32.2026,0,U,40890,999,6759,0,.54E-6,0
BEIDOU-3S IGSO-2S (C56),2015-053A,2026-07-20T15:16:39.872640,1.00252378,.00660687,49.1684,258.3805,193.6741,168.4716,0,U,40938,999,3969,0,-.104E-5,0
GPS BIIF-11 (PRN 10),2015-062A,2026-07-20T04:23:40.341120,2.00567091,.01130632,56.9818,29.5410,230.8561,128.1675,0,U,41019,999,7849,0,-.87E-6,0
GSAT-15 (GAGAN/PRN 139),2015-065A,2026-07-20T14:14:14.951040,1.00271913,.00035617,0.1037,263.5712,177.6248,164.2365,0,U,41028,999,3913,0,-.259E-5,0
GSAT0209 (GALILEO 12),2015-079A,2026-07-19T21:18:19.364832,1.70473671,.00046186,55.8457,100.3644,358.4074,1.6290,0,U,41174,999,6533,0,-.39E-6,0
GSAT0208 (GALILEO 11),2015-079B,2026-07-20T02:35:36.500640,1.70473574,.00042689,55.8443,100.3553,359.9028,0.1346,0,U,41175,999,6575,0,-.4E-6,0
IRNSS-1E,2016-003A,2026-07-20T14:09:53.351712,1.00275464,.00193048,33.3040,59.2648,176.2872,27.0964,0,U,41241,999,3841,0,-.317E-5,0
GPS BIIF-12 (PRN 32),2016-007A,2026-07-20T06:34:51.882240,2.00575239,.00966486,55.5443,88.1473,247.5757,111.4487,0,U,41328,999,7650,0,-.55E-6,0
COSMOS 2514 (751),2016-008A,2026-07-18T17:24:53.172288,2.13102626,.00124281,65.0007,311.9242,201.6103,158.3594,0,U,41330,999,8129,0,-.74E-6,0
BEIDOU-2 IGSO-6 (C13),2016-021A,2026-06-26T02:38:38.671584,1.00258926,.0057558,60.2385,37.9495,231.0163,137.2672,0,U,41434,999,3757,0,-.145E-5,0
IRNSS-1G,2016-027A,2026-07-20T12:02:02.952384,1.00268307,.00059192,5.2755,96.7036,13.1358,138.5881,0,U,41469,999,3751,0,-.339E-5,0
GSAT0211 (GALILEO 14),2016-030A,2026-07-20T05:33:31.703616,1.70473740,.00034438,55.0891,220.7852,318.9851,41.0285,0,U,41549,999,6323,0,.57E-6,0
GSAT0210 (GALILEO 13),2016-030B,2026-07-19T21:39:16.164288,1.70473957,.00047103,55.0878,220.7925,246.5746,113.4149,0,U,41550,999,6322,0,.55E-6,0
BEIDOU-2 G7 (C03),2016-037A,2026-07-20T13:03:38.941344,1.00271028,.00060361,1.8012,69.5510,0.7364,174.4980,0,U,41586,999,722,0,-.355E-5,0
EUTELSAT 117 WEST B (WAAS/PRN 131),2016-038B,2026-07-20T09:09:06.014304,1.00270334,.00001683,0.0059,165.5004,7.9060,145.0325,0,U,41589,999,3699,0,-.13E-6,0
GSAT0207 (GALILEO 15),2016-069A,2026-07-19T00:11:10.718880,1.70473625,.00045611,55.5168,100.2055,339.0572,20.9632,0,U,41859,999,5994,0,-.35E-6,0
GSAT0212 (GALILEO 16),2016-069B,2026-07-20T00:49:26.255424,1.70473722,.0004344,55.5153,100.1719,11.9645,348.0834,0,U,41860,999,6021,0,-.4E-6,0
GSAT0213 (GALILEO 17),2016-069C,2026-07-19T19:33:27.323712,1.70474157,.00039031,55.5171,100.1861,321.1021,38.9078,0,U,41861,999,6007,0,-.39E-6,0
GSAT0214 (GALILEO 18),2016-069D,2026-07-19T23:04:06.356352,1.70473810,.00032629,55.5157,100.1745,333.3186,26.7024,0,U,41862,999,6020,0,-.4E-6,0
SES-15 (WAAS/PRN 133),2017-026A,2026-07-20T11:52:38.468352,1.00268526,.00005356,0.0284,321.9208,131.9787,253.3687,0,U,42709,999,776,0,.59E-6,0
QZS-2 (QZSS/PRN 194),2017-028A,2026-07-19T10:28:17.573664,1.00275667,.07569995,39.3809,242.6784,269.6501,84.4438,0,U,42738,999,795,0,-.145E-5,0
QZS-3 (QZSS/PRN 199),2017-048A,2026-07-20T12:01:18.024384,1.00270069,.00027627,0.0595,207.1610,279.4565,119.0100,0,U,42917,999,3259,0,-.349E-5,0
COSMOS 2522 (752),2017-055A,2026-07-18T02:15:19.099584,2.13101776,.0010876,64.0809,190.8323,240.6480,119.2397,0,U,42939,999,6863,0,.6E-6,0
QZS-4 (QZSS/PRN 195),2017-062A,2026-07-19T17:18:02.105280,1.00289629,.07470384,40.0889,343.0703,268.6623,84.6148,0,U,42965,999,3213,0,-.359E-5,0
BEIDOU-3 M1 (C19),2017-069A,2026-07-19T21:17:47.555808,1.86231171,.00091788,56.7214,62.0072,326.7417,33.2640,0,U,43001,999,5921,0,-.76E-6,0
BEIDOU-3 M2 (C20),2017-069B,2026-07-19T19:49:58.573632,1.86204093,.00059342,56.7156,62.0460,145.8292,214.2725,0,U,43002,999,5920,0,-.75E-6,0
GSAT0215 (GALILEO 19),2017-079A,2026-07-19T06:39:33.391584,1.70474412,.00037426,55.0670,220.6230,269.1143,90.8812,0,U,43055,999,5353,0,.52E-6,0
